[
  {
    "id": "17e43baeabaa72993c54cd149ab52a5c",
    "name": "BEAR: Loss Control Management",
    "city": "",
    "state": "",
    "zip_code": "777840"
  },
  {
    "id": "49f995fa26dc8d63bff6a6a83426651d",
    "name": "DeRep Ltd",
    "city": "Leeds",
    "state": "",
    "zip_code": "LS20 8JZ"
  },
  {
    "id": "384eb10b47ca12e982589f9c817b293c",
    "name": "Florida Virtual Bookkeeper LLC",
    "city": "",
    "state": "",
    "zip_code": "24953"
  },
  {
    "id": "31af9491c4231b4331f07824a20e3868",
    "name": "Law Office of Virginia Curtis Lee",
    "city": "",
    "state": "",
    "zip_code": "https://www.linkedin.com/in/virginia-lee-54713b31/"
  },
  {
    "id": "3acf1c5832cda7c627fbdfd2cd630bb0",
    "name": "Love hut love",
    "city": "",
    "state": "",
    "zip_code": "000045"
  },
  {
    "id": "a1a2433c47ca00fbaf9369c08ac024d3",
    "name": "New Games",
    "city": "Crivitz",
    "state": "",
    "zip_code": "54114"
  },
  {
    "id": "457fd2d2621008827f4281a699d3be73",
    "name": "Pago Pago Marine Charters",
    "city": "",
    "state": "",
    "zip_code": "96799"
  },
  {
    "id": "54411f9b47648b40ab5268702e220aa7",
    "name": "Rugby Rules",
    "city": "",
    "state": "",
    "zip_code": "NSW 2040"
  },
  {
    "id": "13cb4419f9b7742c8fdd8facbd0eb94e",
    "name": "Simply Divine Weddings Hawaii",
    "city": "",
    "state": "",
    "zip_code": "956717"
  },
  {
    "id": "a3451143a60c00022eb4648e9daea351",
    "name": "UX LLC",
    "city": "Tallinn",
    "state": "",
    "zip_code": "12617"
  }
]